STARLINK-3790           
1 52274U 22041P   26068.80760887 -.00000325  00000+0 -23261-5 0  9995
2 52274  53.2156 108.5883 0001269  86.3648 273.7490 15.08836089214388
YAM-8                   
1 63254U 25052AW  26068.73092778  .00007810  00000+0  47267-3 0  9993
2 63254  97.7023 329.5345 0002369 152.6796 207.4558 15.10898938 54245
